{
    "links": {
        "self": "http://www.neowsapp.com/rest/v1/neo/3433336?api_key=iIulBulltgU6a56xZRHN4H3l9WmuAYTsLGpBGhQ2"
    },
    "id": "3433336",
    "neo_reference_id": "3433336",
    "name": "(2008 UV5)",
    "designation": "2008 UV5",
    "nasa_jpl_url": "http://ssd.jpl.nasa.gov/sbdb.cgi?sstr=3433336",
    "absolute_magnitude_h": 26.1,
    "estimated_diameter": {
        "kilometers": {
            "estimated_diameter_min": 0.0160160338,
            "estimated_diameter_max": 0.0358129403
        },
        "meters": {
            "estimated_diameter_min": 16.0160337979,
            "estimated_diameter_max": 35.8129403019
        },
        "miles": {
            "estimated_diameter_min": 0.0099518989,
            "estimated_diameter_max": 0.0222531225
        },
        "feet": {
            "estimated_diameter_min": 52.5460443254,
            "estimated_diameter_max": 117.4965270602
        }
    },
    "is_potentially_hazardous_asteroid": false,
    "close_approach_data": [
        {
            "close_approach_date": "2008-10-13",
            "close_approach_date_full": "2008-Oct-13 15:22",
            "epoch_date_close_approach": 1223911320000,
            "relative_velocity": {
                "kilometers_per_second": "8.4570513962",
                "kilometers_per_hour": "30445.3850262264",
                "miles_per_hour": "18917.5782681016"
            },
            "miss_distance": {
                "astronomical": "0.0505115237",
                "lunar": "19.6489827193",
                "kilometers": "7556416.355974519",
                "miles": "4695339.3978216022"
            },
            "orbiting_body": "Earth"
        }
    ],
    "orbital_data": {
        "orbit_id": "11",
        "orbit_determination_date": "2017-04-06 09:05:25",
        "first_observation_date": "2008-10-25",
        "last_observation_date": "2008-10-30",
        "data_arc_in_days": 5,
        "observations_used": 25,
        "orbit_uncertainty": "9",
        "minimum_orbit_intersection": ".0419155",
        "jupiter_tisserand_invariant": "3.135",
        "epoch_osculation": "2454766.5",
        "eccentricity": ".6027712911682955",
        "semi_major_axis": "2.586279076749524",
        "inclination": "3.515641063808657",
        "ascending_node_longitude": "40.53023245574953",
        "orbital_period": "1519.187947927066",
        "perihelion_distance": "1.027344298335666",
        "perihelion_argument": "325.2726310636083",
        "aphelion_distance": "4.145213855163381",
        "perihelion_time": "2454741.712192477616",
        "mean_anomaly": "5.873934637405807",
        "mean_motion": ".2369687045577347",
        "equinox": "J2000",
        "orbit_class": {
            "orbit_class_type": "AMO",
            "orbit_class_description": "Near-Earth asteroid orbits similar to that of 1221 Amor",
            "orbit_class_range": "1.017 AU < q (perihelion) < 1.3 AU"
        }
    },
    "is_sentry_object": false
}